*******************************************************************************
Ephemeris / WWW_USER Mon Mar 24 08:18:15 2025 Pasadena, USA      / Horizons    
*******************************************************************************
Target body name: (2018 UG3)                      {source: JPL#15}
Center body name: Earth (399)                     {source: DE441}
Center-site name: Mauna Kea
*******************************************************************************
Start time      : A.D. 2018-Oct-27 04:00:00.0000 UT      
Stop  time      : A.D. 2018-Oct-27 16:11:00.0000 UT      
Step-size       : 1 minutes
*******************************************************************************
Target pole/equ : undefined
Target radii    : undefined                                                    
Center geodetic : 204.5278, 19.8260847, 4.21024   {E-lon(deg),Lat(deg),Alt(km)}
Center cylindric: 204.5278, 6006.35451, 2151.0229 {E-lon(deg),Dxy(km),Dz(km)}
Center pole/equ : ITRF93                          {East-longitude positive}
Center radii    : 6378.137, 6378.137, 6356.752 km {Equator_a, b, pole_c}       
Target primary  : Sun
Vis. interferer : MOON (R_eq= 1737.400) km        {source: DE441}
Rel. light bend : Sun                             {source: DE441}
Rel. lght bnd GM: 1.3271E+11 km^3/s^2                                          
Small-body perts: Yes                             {source: SB441-N16}
Atmos refraction: NO (AIRLESS)
RA format       : HMS
Time format     : CAL 
Calendar mode   : Mixed Julian/Gregorian
RTS-only print  : NO       
EOP file        : eop.250321.p250617                                           
EOP coverage    : DATA-BASED 1962-JAN-20 TO 2025-MAR-21. PREDICTS-> 2025-JUN-16
Units conversion: 1 au= 149597870.700 km, c= 299792.458 km/s, 1 day= 86400.0 s 
Table cut-offs 1: Elevation (-90.0deg=NO ),Airmass (>38.000=NO), Daylight (YES)
Table cut-offs 2: Solar elongation (  0.0,180.0=NO ),Local Hour Angle( 0.0=NO )
Table cut-offs 3: RA/DEC angular rate (     0.0=NO )                           
*******************************************************************************
Initial IAU76/J2000 heliocentric ecliptic osculating elements (au, days, deg.):
  EPOCH=  2458429.5 ! 2018-Nov-07.00 (TDB)         Residual RMS= .46194        
   EC= .4227384440318329   QR= .9585039390071354   TP= 2458393.2526467689      
   OM= 47.27406359171053   W=  314.2704472892426   IN= 6.159551265235018       
  Equivalent ICRF heliocentric cartesian coordinates (au, au/d):
   X= 7.430529944075828E-01  Y= 6.714692173902916E-01  Z= 2.851295671149762E-01
  VX=-1.040372162305418E-02 VY= 1.447630012002514E-02 VZ= 8.505235531163944E-03
Asteroid physical parameters (km, seconds, rotational period in hours):        
   GM= n.a.                RAD= n.a.               ROTPER= n.a.                
   H= 24.5                 G= .150                 B-V= n.a.                   
                           ALBEDO= n.a.            STYP= n.a.                  
*******************************************************************************
 Date__(UT)__HR:MN     R.A._________(ICRF)_________DEC
******************************************************
$$SOE
 2018-Oct-27 06:03  m  00 44 06.427366 -63 42 02.78473
 2018-Oct-27 06:04  m  00 44 08.159957 -63 41 46.99660
 2018-Oct-27 06:05  m  00 44 09.891695 -63 41 31.20224
 2018-Oct-27 06:06  m  00 44 11.622583 -63 41 15.40161
 2018-Oct-27 06:07  m  00 44 13.352623 -63 40 59.59472
 2018-Oct-27 06:08  m  00 44 15.081818 -63 40 43.78154
 2018-Oct-27 06:09  m  00 44 16.810170 -63 40 27.96208
 2018-Oct-27 06:10  m  00 44 18.537681 -63 40 12.13632
 2018-Oct-27 06:11  m  00 44 20.264355 -63 39 56.30424
 2018-Oct-27 06:12  m  00 44 21.990194 -63 39 40.46584
 2018-Oct-27 06:13  m  00 44 23.715200 -63 39 24.62111
 2018-Oct-27 06:14  m  00 44 25.439376 -63 39 08.77003
 2018-Oct-27 06:15  m  00 44 27.162724 -63 38 52.91260
 2018-Oct-27 06:16  m  00 44 28.885248 -63 38 37.04880
 2018-Oct-27 06:17  m  00 44 30.606949 -63 38 21.17862
 2018-Oct-27 06:18  m  00 44 32.327830 -63 38 05.30206
 2018-Oct-27 06:19  m  00 44 34.047894 -63 37 49.41910
 2018-Oct-27 06:20  m  00 44 35.767144 -63 37 33.52973
 2018-Oct-27 06:21  m  00 44 37.485582 -63 37 17.63394
 2018-Oct-27 06:22  m  00 44 39.203211 -63 37 01.73172
 2018-Oct-27 06:23  m  00 44 40.920033 -63 36 45.82307
 2018-Oct-27 06:24  m  00 44 42.636051 -63 36 29.90796
 2018-Oct-27 06:25  m  00 44 44.351268 -63 36 13.98640
 2018-Oct-27 06:26  m  00 44 46.065685 -63 35 58.05836
 2018-Oct-27 06:27  m  00 44 47.779307 -63 35 42.12385
 2018-Oct-27 06:28  m  00 44 49.492136 -63 35 26.18284
 2018-Oct-27 06:29  m  00 44 51.204174 -63 35 10.23534
 2018-Oct-27 06:30  m  00 44 52.915423 -63 34 54.28133
 2018-Oct-27 06:31  m  00 44 54.625888 -63 34 38.32080
 2018-Oct-27 06:32  m  00 44 56.335569 -63 34 22.35374
 2018-Oct-27 06:33  m  00 44 58.044471 -63 34 06.38014
 2018-Oct-27 06:34  m  00 44 59.752596 -63 33 50.40000
 2018-Oct-27 06:35  m  00 45 01.459945 -63 33 34.41329
 2018-Oct-27 06:36  m  00 45 03.166523 -63 33 18.42002
 2018-Oct-27 06:37  m  00 45 04.872332 -63 33 02.42018
 2018-Oct-27 06:38  m  00 45 06.577375 -63 32 46.41375
 2018-Oct-27 06:39  m  00 45 08.281653 -63 32 30.40072
 2018-Oct-27 06:40  m  00 45 09.985171 -63 32 14.38109
 2018-Oct-27 06:41  m  00 45 11.687931 -63 31 58.35485
 2018-Oct-27 06:42  m  00 45 13.389935 -63 31 42.32198
 2018-Oct-27 06:43  m  00 45 15.091186 -63 31 26.28249
 2018-Oct-27 06:44  m  00 45 16.791688 -63 31 10.23635
 2018-Oct-27 06:45  m  00 45 18.491442 -63 30 54.18357
 2018-Oct-27 06:46  m  00 45 20.190452 -63 30 38.12413
 2018-Oct-27 06:47  m  00 45 21.888720 -63 30 22.05802
 2018-Oct-27 06:48  m  00 45 23.586250 -63 30 05.98524
 2018-Oct-27 06:49  m  00 45 25.283043 -63 29 49.90577
 2018-Oct-27 06:50  m  00 45 26.979103 -63 29 33.81961
 2018-Oct-27 06:51  m  00 45 28.674433 -63 29 17.72675
 2018-Oct-27 06:52  m  00 45 30.369035 -63 29 01.62719
 2018-Oct-27 06:53  m  00 45 32.062912 -63 28 45.52090
 2018-Oct-27 06:54  m  00 45 33.756067 -63 28 29.40789
 2018-Oct-27 06:55  m  00 45 35.448502 -63 28 13.28815
 2018-Oct-27 06:56  m  00 45 37.140222 -63 27 57.16166
 2018-Oct-27 06:57  m  00 45 38.831227 -63 27 41.02843
 2018-Oct-27 06:58  m  00 45 40.521522 -63 27 24.88843
 2018-Oct-27 06:59  m  00 45 42.211110 -63 27 08.74167
 2018-Oct-27 07:00  m  00 45 43.899992 -63 26 52.58814
 2018-Oct-27 07:01  m  00 45 45.588171 -63 26 36.42783
 2018-Oct-27 07:02  m  00 45 47.275652 -63 26 20.26072
 2018-Oct-27 07:03  m  00 45 48.962436 -63 26 04.08682
 2018-Oct-27 07:04  m  00 45 50.648526 -63 25 47.90612
 2018-Oct-27 07:05  m  00 45 52.333925 -63 25 31.71860
 2018-Oct-27 07:06  m  00 45 54.018637 -63 25 15.52427
 2018-Oct-27 07:07  m  00 45 55.702663 -63 24 59.32310
 2018-Oct-27 07:08  m  00 45 57.386008 -63 24 43.11511
 2018-Oct-27 07:09  m  00 45 59.068673 -63 24 26.90027
 2018-Oct-27 07:10  m  00 46 00.750661 -63 24 10.67859
 2018-Oct-27 07:11  m  00 46 02.431976 -63 23 54.45004
 2018-Oct-27 07:12  m  00 46 04.112621 -63 23 38.21464
 2018-Oct-27 07:13  m  00 46 05.792598 -63 23 21.97237
 2018-Oct-27 07:14  m  00 46 07.471910 -63 23 05.72322
 2018-Oct-27 07:15  m  00 46 09.150560 -63 22 49.46719
 2018-Oct-27 07:16  m  00 46 10.828551 -63 22 33.20426
 2018-Oct-27 07:17  m  00 46 12.505886 -63 22 16.93445
 2018-Oct-27 07:18  m  00 46 14.182568 -63 22 00.65772
 2018-Oct-27 07:19  m  00 46 15.858600 -63 21 44.37409
 2018-Oct-27 07:20  m  00 46 17.533984 -63 21 28.08355
 2018-Oct-27 07:21  m  00 46 19.208725 -63 21 11.78608
 2018-Oct-27 07:22  m  00 46 20.882823 -63 20 55.48168
 2018-Oct-27 07:23  m  00 46 22.556283 -63 20 39.17034
 2018-Oct-27 07:24  m  00 46 24.229108 -63 20 22.85207
 2018-Oct-27 07:25  m  00 46 25.901300 -63 20 06.52685
 2018-Oct-27 07:26  m  00 46 27.572863 -63 19 50.19467
 2018-Oct-27 07:27  m  00 46 29.243798 -63 19 33.85554
 2018-Oct-27 07:28  m  00 46 30.914110 -63 19 17.50944
 2018-Oct-27 07:29  m  00 46 32.583802 -63 19 01.15636
 2018-Oct-27 07:30  m  00 46 34.252875 -63 18 44.79632
 2018-Oct-27 07:31  m  00 46 35.921334 -63 18 28.42929
 2018-Oct-27 07:32  m  00 46 37.589180 -63 18 12.05527
 2018-Oct-27 07:33  m  00 46 39.256418 -63 17 55.67426
 2018-Oct-27 07:34  m  00 46 40.923050 -63 17 39.28624
 2018-Oct-27 07:35  m  00 46 42.589079 -63 17 22.89123
 2018-Oct-27 07:36  m  00 46 44.254508 -63 17 06.48920
 2018-Oct-27 07:37  m  00 46 45.919340 -63 16 50.08016
 2018-Oct-27 07:38  m  00 46 47.583578 -63 16 33.66410
 2018-Oct-27 07:39  m  00 46 49.247225 -63 16 17.24102
 2018-Oct-27 07:40  m  00 46 50.910284 -63 16 00.81090
 2018-Oct-27 07:41  m  00 46 52.572758 -63 15 44.37375
 2018-Oct-27 07:42  m  00 46 54.234650 -63 15 27.92956
 2018-Oct-27 07:43  m  00 46 55.895963 -63 15 11.47833
 2018-Oct-27 07:44  m  00 46 57.556700 -63 14 55.02004
 2018-Oct-27 07:45  m  00 46 59.216863 -63 14 38.55470
 2018-Oct-27 07:46  m  00 47 00.876457 -63 14 22.08231
 2018-Oct-27 07:47  m  00 47 02.535484 -63 14 05.60284
 2018-Oct-27 07:48  m  00 47 04.193947 -63 13 49.11632
 2018-Oct-27 07:49  m  00 47 05.851849 -63 13 32.62272
 2018-Oct-27 07:50  m  00 47 07.509193 -63 13 16.12204
 2018-Oct-27 07:51  m  00 47 09.165982 -63 12 59.61428
 2018-Oct-27 07:52  m  00 47 10.822219 -63 12 43.09944
 2018-Oct-27 07:53  m  00 47 12.477907 -63 12 26.57751
 2018-Oct-27 07:54  m  00 47 14.133049 -63 12 10.04849
 2018-Oct-27 07:55  m  00 47 15.787649 -63 11 53.51237
 2018-Oct-27 07:56  m  00 47 17.441708 -63 11 36.96915
 2018-Oct-27 07:57  m  00 47 19.095231 -63 11 20.41883
 2018-Oct-27 07:58  m  00 47 20.748220 -63 11 03.86139
 2018-Oct-27 07:59  m  00 47 22.400679 -63 10 47.29685
 2018-Oct-27 08:00  m  00 47 24.052609 -63 10 30.72519
 2018-Oct-27 08:01  m  00 47 25.704015 -63 10 14.14642
 2018-Oct-27 08:02  m  00 47 27.354900 -63 09 57.56052
 2018-Oct-27 08:03  m  00 47 29.005265 -63 09 40.96750
 2018-Oct-27 08:04  m  00 47 30.655116 -63 09 24.36735
 2018-Oct-27 08:05  m  00 47 32.304453 -63 09 07.76007
